CCSDS_OMM_VERS = 2.0
CREATION_DATE  = 
ORIGINATOR     = 

OBJECT_NAME    = STARLINK-35913
OBJECT_ID      = 2025-293B
CENTER_NAME    = EARTH
REF_FRAME      = TEME
TIME_SYSTEM    = UTC
MEAN_ELEMENT_THEORY = SGP/SGP4

EPOCH          = 2025-12-24T22:00:03.000096
MEAN_MOTION    = 15.78892057
ECCENTRICITY   = .00034654
INCLINATION    = 69.9932
RA_OF_ASC_NODE = 288.5402
ARG_OF_PERICENTER = 265.9717
MEAN_ANOMALY   = 304.1077

EPHEMERIS_TYPE = 0
CLASSIFICATION_TYPE = U
NORAD_CAT_ID   = 67004
ELEMENT_SET_NO = 999
REV_AT_EPOCH   = 212
BSTAR          = -.10767028E-1
MEAN_MOTION_DOT = -.1657966E-1
MEAN_MOTION_DDOT = 0

CCSDS_OMM_VERS = 2.0
CREATION_DATE  = 
ORIGINATOR     = 

OBJECT_NAME    = STARLINK-36148
OBJECT_ID      = 2025-293C
CENTER_NAME    = EARTH
REF_FRAME      = TEME
TIME_SYSTEM    = UTC
MEAN_ELEMENT_THEORY = SGP/SGP4

EPOCH          = 2025-12-24T22:00:03.000096
MEAN_MOTION    = 15.78876784
ECCENTRICITY   = .00036738
INCLINATION    = 69.9935
RA_OF_ASC_NODE = 288.5381
ARG_OF_PERICENTER = 262.5122
MEAN_ANOMALY   = 309.8497

EPHEMERIS_TYPE = 0
CLASSIFICATION_TYPE = U
NORAD_CAT_ID   = 67005
ELEMENT_SET_NO = 999
REV_AT_EPOCH   = 212
BSTAR          = -.10755998E-1
MEAN_MOTION_DOT = -.1655719E-1
MEAN_MOTION_DDOT = 0

CCSDS_OMM_VERS = 2.0
CREATION_DATE  = 
ORIGINATOR     = 

OBJECT_NAME    = STARLINK-36156
OBJECT_ID      = 2025-293D
CENTER_NAME    = EARTH
REF_FRAME      = TEME
TIME_SYSTEM    = UTC
MEAN_ELEMENT_THEORY = SGP/SGP4

EPOCH          = 2025-12-24T22:00:03.000096
MEAN_MOTION    = 15.78825689
ECCENTRICITY   = .00037303
INCLINATION    = 69.9932
RA_OF_ASC_NODE = 288.5314
ARG_OF_PERICENTER = 266.2980
MEAN_ANOMALY   = 311.2252

EPHEMERIS_TYPE = 0
CLASSIFICATION_TYPE = U
NORAD_CAT_ID   = 67006
ELEMENT_SET_NO = 999
REV_AT_EPOCH   = 212
BSTAR          = -.10791332E-1
MEAN_MOTION_DOT = -.1657144E-1
MEAN_MOTION_DDOT = 0

CCSDS_OMM_VERS = 2.0
CREATION_DATE  = 
ORIGINATOR     = 

OBJECT_NAME    = STARLINK-36123
OBJECT_ID      = 2025-293E
CENTER_NAME    = EARTH
REF_FRAME      = TEME
TIME_SYSTEM    = UTC
MEAN_ELEMENT_THEORY = SGP/SGP4

EPOCH          = 2025-12-24T22:00:03.000096
MEAN_MOTION    = 15.78843572
ECCENTRICITY   = .0003686
INCLINATION    = 69.9931
RA_OF_ASC_NODE = 288.5343
ARG_OF_PERICENTER = 265.5195
MEAN_ANOMALY   = 309.6069

EPHEMERIS_TYPE = 0
CLASSIFICATION_TYPE = U
NORAD_CAT_ID   = 67007
ELEMENT_SET_NO = 999
REV_AT_EPOCH   = 212
BSTAR          = -.10758399E-1
MEAN_MOTION_DOT = -.1653883E-1
MEAN_MOTION_DDOT = 0

CCSDS_OMM_VERS = 2.0
CREATION_DATE  = 
ORIGINATOR     = 

OBJECT_NAME    = STARLINK-36163
OBJECT_ID      = 2025-293F
CENTER_NAME    = EARTH
REF_FRAME      = TEME
TIME_SYSTEM    = UTC
MEAN_ELEMENT_THEORY = SGP/SGP4

EPOCH          = 2025-12-24T22:00:03.000096
MEAN_MOTION    = 15.78790188
ECCENTRICITY   = .00034607
INCLINATION    = 69.9932
RA_OF_ASC_NODE = 288.5280
ARG_OF_PERICENTER = 269.2449
MEAN_ANOMALY   = 311.2202

EPHEMERIS_TYPE = 0
CLASSIFICATION_TYPE = U
NORAD_CAT_ID   = 67008
ELEMENT_SET_NO = 999
REV_AT_EPOCH   = 212
BSTAR          = -.10832042E-1
MEAN_MOTION_DOT = -.165994E-1
MEAN_MOTION_DDOT = 0

CCSDS_OMM_VERS = 2.0
CREATION_DATE  = 
ORIGINATOR     = 

OBJECT_NAME    = STARLINK-36118
OBJECT_ID      = 2025-293G
CENTER_NAME    = EARTH
REF_FRAME      = TEME
TIME_SYSTEM    = UTC
MEAN_ELEMENT_THEORY = SGP/SGP4

EPOCH          = 2025-12-24T22:00:03.000096
MEAN_MOTION    = 15.78767052
ECCENTRICITY   = .00034249
INCLINATION    = 69.9931
RA_OF_ASC_NODE = 288.5249
ARG_OF_PERICENTER = 267.1990
MEAN_ANOMALY   = 315.7949

EPHEMERIS_TYPE = 0
CLASSIFICATION_TYPE = U
NORAD_CAT_ID   = 67009
ELEMENT_SET_NO = 999
REV_AT_EPOCH   = 206
BSTAR          = -.10840123E-1
MEAN_MOTION_DOT = -.165946E-1
MEAN_MOTION_DDOT = 0

CCSDS_OMM_VERS = 2.0
CREATION_DATE  = 
ORIGINATOR     = 

OBJECT_NAME    = STARLINK-36189
OBJECT_ID      = 2025-293H
CENTER_NAME    = EARTH
REF_FRAME      = TEME
TIME_SYSTEM    = UTC
MEAN_ELEMENT_THEORY = SGP/SGP4

EPOCH          = 2025-12-24T22:00:03.000096
MEAN_MOTION    = 15.78732659
ECCENTRICITY   = .00034156
INCLINATION    = 69.9931
RA_OF_ASC_NODE = 288.5192
ARG_OF_PERICENTER = 263.0241
MEAN_ANOMALY   = 324.6136

EPHEMERIS_TYPE = 0
CLASSIFICATION_TYPE = U
NORAD_CAT_ID   = 67010
ELEMENT_SET_NO = 999
REV_AT_EPOCH   = 212
BSTAR          = -.10830589E-1
MEAN_MOTION_DOT = -.165594E-1
MEAN_MOTION_DDOT = 0

CCSDS_OMM_VERS = 2.0
CREATION_DATE  = 
ORIGINATOR     = 

OBJECT_NAME    = STARLINK-36167
OBJECT_ID      = 2025-293J
CENTER_NAME    = EARTH
REF_FRAME      = TEME
TIME_SYSTEM    = UTC
MEAN_ELEMENT_THEORY = SGP/SGP4

EPOCH          = 2025-12-24T22:00:03.000096
MEAN_MOTION    = 15.78761030
ECCENTRICITY   = .00034306
INCLINATION    = 69.9927
RA_OF_ASC_NODE = 288.5218
ARG_OF_PERICENTER = 264.7176
MEAN_ANOMALY   = 320.3609

EPHEMERIS_TYPE = 0
CLASSIFICATION_TYPE = U
NORAD_CAT_ID   = 67011
ELEMENT_SET_NO = 999
REV_AT_EPOCH   = 206
BSTAR          = -.10844442E-1
MEAN_MOTION_DOT = -.1659645E-1
MEAN_MOTION_DDOT = 0

CCSDS_OMM_VERS = 2.0
CREATION_DATE  = 
ORIGINATOR     = 

OBJECT_NAME    = STARLINK-36175
OBJECT_ID      = 2025-293K
CENTER_NAME    = EARTH
REF_FRAME      = TEME
TIME_SYSTEM    = UTC
MEAN_ELEMENT_THEORY = SGP/SGP4

EPOCH          = 2025-12-24T22:00:03.000096
MEAN_MOTION    = 15.78727132
ECCENTRICITY   = .00034038
INCLINATION    = 69.9927
RA_OF_ASC_NODE = 288.5164
ARG_OF_PERICENTER = 267.4889
MEAN_ANOMALY   = 322.3362

EPHEMERIS_TYPE = 0
CLASSIFICATION_TYPE = U
NORAD_CAT_ID   = 67012
ELEMENT_SET_NO = 999
REV_AT_EPOCH   = 206
BSTAR          = -.10867571E-1
MEAN_MOTION_DOT = -.166046E-1
MEAN_MOTION_DDOT = 0

CCSDS_OMM_VERS = 2.0
CREATION_DATE  = 
ORIGINATOR     = 

OBJECT_NAME    = STARLINK-35856
OBJECT_ID      = 2025-293L
CENTER_NAME    = EARTH
REF_FRAME      = TEME
TIME_SYSTEM    = UTC
MEAN_ELEMENT_THEORY = SGP/SGP4

EPOCH          = 2025-12-24T22:00:03.000096
MEAN_MOTION    = 15.78698152
ECCENTRICITY   = .00036647
INCLINATION    = 69.9926
RA_OF_ASC_NODE = 288.5128
ARG_OF_PERICENTER = 263.8207
MEAN_ANOMALY   = 328.5331

EPHEMERIS_TYPE = 0
CLASSIFICATION_TYPE = U
NORAD_CAT_ID   = 67013
ELEMENT_SET_NO = 999
REV_AT_EPOCH   = 206
BSTAR          = -.1083196E-1
MEAN_MOTION_DOT = -.1654135E-1
MEAN_MOTION_DDOT = 0

CCSDS_OMM_VERS = 2.0
CREATION_DATE  = 
ORIGINATOR     = 

OBJECT_NAME    = STARLINK-36207
OBJECT_ID      = 2025-293M
CENTER_NAME    = EARTH
REF_FRAME      = TEME
TIME_SYSTEM    = UTC
MEAN_ELEMENT_THEORY = SGP/SGP4

EPOCH          = 2025-12-24T22:00:03.000096
MEAN_MOTION    = 15.78680350
ECCENTRICITY   = .00036171
INCLINATION    = 69.9929
RA_OF_ASC_NODE = 288.5107
ARG_OF_PERICENTER = 266.2428
MEAN_ANOMALY   = 328.5126

EPHEMERIS_TYPE = 0
CLASSIFICATION_TYPE = U
NORAD_CAT_ID   = 67014
ELEMENT_SET_NO = 999
REV_AT_EPOCH   = 212
BSTAR          = -.10848349E-1
MEAN_MOTION_DOT = -.165509E-1
MEAN_MOTION_DDOT = 0

CCSDS_OMM_VERS = 2.0
CREATION_DATE  = 
ORIGINATOR     = 

OBJECT_NAME    = STARLINK-36093
OBJECT_ID      = 2025-293N
CENTER_NAME    = EARTH
REF_FRAME      = TEME
TIME_SYSTEM    = UTC
MEAN_ELEMENT_THEORY = SGP/SGP4

EPOCH          = 2025-12-24T22:00:03.000096
MEAN_MOTION    = 15.78648262
ECCENTRICITY   = .00035812
INCLINATION    = 69.9925
RA_OF_ASC_NODE = 288.5043
ARG_OF_PERICENTER = 261.9779
MEAN_ANOMALY   = 337.5231

EPHEMERIS_TYPE = 0
CLASSIFICATION_TYPE = U
NORAD_CAT_ID   = 67015
ELEMENT_SET_NO = 999
REV_AT_EPOCH   = 206
BSTAR          = -.10893316E-1
MEAN_MOTION_DOT = -.1658892E-1
MEAN_MOTION_DDOT = 0

CCSDS_OMM_VERS = 2.0
CREATION_DATE  = 
ORIGINATOR     = 

OBJECT_NAME    = STARLINK-36120
OBJECT_ID      = 2025-293P
CENTER_NAME    = EARTH
REF_FRAME      = TEME
TIME_SYSTEM    = UTC
MEAN_ELEMENT_THEORY = SGP/SGP4

EPOCH          = 2025-12-24T22:00:03.000096
MEAN_MOTION    = 15.78668219
ECCENTRICITY   = .00034653
INCLINATION    = 69.9927
RA_OF_ASC_NODE = 288.5074
ARG_OF_PERICENTER = 261.0036
MEAN_ANOMALY   = 336.0155

EPHEMERIS_TYPE = 0
CLASSIFICATION_TYPE = U
NORAD_CAT_ID   = 67016
ELEMENT_SET_NO = 999
REV_AT_EPOCH   = 206
BSTAR          = -.10870063E-1
MEAN_MOTION_DOT = -.1657005E-1
MEAN_MOTION_DDOT = 0

CCSDS_OMM_VERS = 2.0
CREATION_DATE  = 
ORIGINATOR     = 

OBJECT_NAME    = STARLINK-35498
OBJECT_ID      = 2025-293Q
CENTER_NAME    = EARTH
REF_FRAME      = TEME
TIME_SYSTEM    = UTC
MEAN_ELEMENT_THEORY = SGP/SGP4

EPOCH          = 2025-12-24T22:00:03.000096
MEAN_MOTION    = 15.78632983
ECCENTRICITY   = .0003623
INCLINATION    = 69.9920
RA_OF_ASC_NODE = 288.5013
ARG_OF_PERICENTER = 261.3032
MEAN_ANOMALY   = 340.5519

EPHEMERIS_TYPE = 0
CLASSIFICATION_TYPE = U
NORAD_CAT_ID   = 67017
ELEMENT_SET_NO = 999
REV_AT_EPOCH   = 226
BSTAR          = -.10913949E-1
MEAN_MOTION_DOT = -.1660658E-1
MEAN_MOTION_DDOT = 0

CCSDS_OMM_VERS = 2.0
CREATION_DATE  = 
ORIGINATOR     = 

OBJECT_NAME    = STARLINK-36106
OBJECT_ID      = 2025-293R
CENTER_NAME    = EARTH
REF_FRAME      = TEME
TIME_SYSTEM    = UTC
MEAN_ELEMENT_THEORY = SGP/SGP4

EPOCH          = 2025-12-24T22:00:03.000096
MEAN_MOTION    = 15.78610103
ECCENTRICITY   = .00036321
INCLINATION    = 69.9921
RA_OF_ASC_NODE = 288.4981
ARG_OF_PERICENTER = 261.2684
MEAN_ANOMALY   = 342.9641

EPHEMERIS_TYPE = 0
CLASSIFICATION_TYPE = U
NORAD_CAT_ID   = 67018
ELEMENT_SET_NO = 999
REV_AT_EPOCH   = 218
BSTAR          = -.10924639E-1
MEAN_MOTION_DOT = -.1660579E-1
MEAN_MOTION_DDOT = 0

